ANIK F1                 
1 26624U 00076A   17245.34901129 -.00000088  00000-0  00000+0 0  9997
2 26624   0.0155 161.1732 0003264 348.3840 210.4653  1.00272703 61548
ASTRA 2D                
1 26638U 00081A   17247.07496004  .00000036  00000-0  00000+0 0  9993
2 26638   3.7980  69.6793 0001610  84.8359 275.5405  1.00272889 61225
AMC-8 (GE-8)            
1 26639U 00081B   17246.75740591  .00000090  00000-0  00000-0 0  9992
2 26639   0.0480 291.0262 0002334 238.2529 307.4540  1.00272740 61176
SKYNET 4F               
1 26695U 01005B   17246.78309896 -.00000255  00000-0  00000-0 0  9997
2 26695   8.9838  36.0676 0003303 123.5848  71.3824  1.00271278 60711
EUTELSAT 33C            
1 26719U 01011A   17247.11488228  .00000142  00000-0  00000+0 0  9999
2 26719   0.0721 335.5893 0003785 196.7078 245.5930  1.00279156 60414
INTELSAT 10 (IS-10)     
1 26766U 01019A   17247.18218793  .00000112  00000-0  00000+0 0  9991
2 26766   1.6770  84.8514 0001920  63.6413 308.1278  1.00275372 59768
INTELSAT 901 (IS-901)   
1 26824U 01024A   17246.74899292 -.00000154  00000-0  00000-0 0  9990
2 26824   0.0584 285.1084 0003068 225.0566  84.5406  1.00272352 59522
ASTRA 2C                
1 26853U 01025A   17247.11365987  .00000033  00000-0  00000+0 0  9998
2 26853   0.5611  91.6186 0004029  66.8761 286.1459  1.00271293 59418
ARTEMIS                 
1 26863U 01029A   17246.78379421 -.00000374  00000-0  00000-0 0  9993
2 26863  12.8098  32.2486 0001840 172.4283 183.6820  1.00272606 11970
INTELSAT 902 (IS-902)   
1 26900U 01039A   17246.93030068  .00000019  00000-0  00000-0 0  9999
2 26900   0.0224 110.9046 0002889  64.3689 204.8652  1.00271735 58546
EUTELSAT 12 WEST B      
1 26927U 01042A   17246.90254325 -.00000114  00000-0  00000-0 0  9990
2 26927   0.0605  36.8181 0004274 128.5104 130.3105  1.00272562 58342
DIRECTV 4S              
1 26985U 01052A   17247.16434903 -.00000127  00000-0  00000+0 0  9999
2 26985   0.0217 231.9323 0002415 304.6957 124.8236  1.00272456 57826
ECHOSTAR 7              
1 27378U 02006A   17246.74768319 -.00000014  00000-0  00000-0 0  9996
2 27378   0.0518 297.4862 0001521 218.5402 337.3831  1.00272698 18475
INTELSAT 904 (IS-904)   
1 27380U 02007A   17246.89062935  .00000122  00000-0  00000-0 0  9996
2 27380   0.0109 151.3442 0003155   0.5039 197.0911  1.00272877 19599
TDRS 9                  
1 27389U 02011A   17246.31168808 -.00000111  00000-0  00000+0 0  9991
2 27389   5.4045  78.1104 0016055 238.7421 126.0736  1.00272236 58263
JCSAT 2A                
1 27399U 02015A   17246.82202069 -.00000369  00000-0  00000-0 0  9996
2 27399   0.6401  92.3498 0002766  54.3998 259.1923  1.00140783 56722
ASTRA 3A                
1 27400U 02015B   17245.37220299 -.00000293  00000-0  00000+0 0  9998
2 27400   3.9561  68.4069 0003015  88.4081 271.9363  1.00272892 56531
INTELSAT 903 (IS-903)   
1 27403U 02016A   17246.78309896 -.00000252  00000-0  00000-0 0  9995
2 27403   0.0149 133.9727 0003316  71.3249  25.2233  1.00271790 13506
NSS-7                   
1 27414U 02019A   17246.33490921 -.00000169  00000-0  00000-0 0  9998
2 27414   2.0520  82.6567 0002418  85.3485 275.2239  1.00271725 56399
DIRECTV 5 (TEMPO 1)     
1 27426U 02023A   17246.35403418 -.00000070  00000-0  00000+0 0  9993
2 27426   0.0136 134.0709 0003494  40.0297 185.9084  1.00271789 56134
INTELSAT 905 (IS-905)   
1 27438U 02027A   17247.14195888 -.00000198  00000-0  00000+0 0  9998
2 27438   0.0119 188.2825 0002789 323.5284 218.2504  1.00271477 55791
EXPRESS-A4              
1 27441U 02029A   17246.38566436 -.00000259  00000-0  00000+0 0  9998
2 27441   6.1885  56.0078 0006652  93.6635 117.0809  1.00266260 55790
GALAXY 3C (G-3C)        
1 27445U 02030A   17246.31216413 -.00000165  00000-0  00000+0 0  9990
2 27445   0.0408 301.8547 0001356  41.8612  16.2844  1.00269364 55782
EUTELSAT 5 WEST A       
1 27460U 02035A   17246.06289745 -.00000056  00000-0  00000-0 0  9992
2 27460   0.0525 339.2269 0004935 184.3746 196.4190  1.00272178 55447
N-STAR C                
1 27461U 02035B   17246.82202069 -.00000321  00000-0  00000+0 0  9995
2 27461   4.7734  64.3550 0003848  56.4800 294.2478  1.00272688 55488
EUTELSAT 36 WEST A      
1 27508U 02040A   17247.14610466 -.00000259  00000-0  00000+0 0  9993
2 27508   0.0745  29.9977 0000810 214.7749 115.2251  1.00270089 55088
METEOSAT-8 (MSG-1)      
1 27509U 02040B   17247.11504860  .00000130  00000-0  00000+0 0  9998
2 27509   4.9715  58.0402 0000911 297.0260  71.3014  1.00264663 55089
INTELSAT 906 (IS-906)   
1 27513U 02041A   17246.90018698  .00000000  00000-0  00000-0 0  9996
2 27513   0.0150 206.5081 0002747 319.2457 205.6717  1.00272483 54867
KALPANA-1 (METSAT 1)    
1 27525U 02043A   17245.99797606 -.00000088  00000-0  00000-0 0  9999
2 27525   6.4748  54.7198 0013269 224.4782 135.6149  1.00272713 54883
HISPASAT 1D             
1 27528U 02044A   17246.69837602 -.00000230  00000-0  00000+0 0  9990
2 27528   0.0135 294.7330 0003515 255.1991  14.5033  1.00268421 54772
TDRS 10                 
1 27566U 02055A   17246.69334314  .00000068  00000-0  00000+0 0  9994
2 27566   5.1659  58.0500 0006602 213.6694 146.5492  1.00268420 54055
NSS-6                   
1 27603U 02057A   17246.92369073 -.00000284  00000-0  00000-0 0  9996
2 27603   0.0264 141.8327 0002231  48.4696 220.4697  1.00269944 53927
NIMIQ 2                 
1 27632U 02062A   17246.28846972  .00000069  00000-0  00000-0 0  9991
2 27632   2.1460  81.5984 0005102   6.0002 354.5260  1.01572114 12039
INTELSAT 907 (IS-907)   
1 27683U 03007A   17246.12515200 -.00000216  00000-0  00000-0 0  9992
2 27683   0.0163 201.9463 0003158 326.3617 191.7039  1.00271788 53279
GALAXY 12 (G-12)        
1 27715U 03013B   17246.97757684  .00000045  00000-0  00000+0 0  9990
2 27715   0.0549 274.5157 0002373 251.0294  40.6688  1.00272910 52833
ASIASAT 4               
1 27718U 03014A   17247.20718480 -.00000374  00000-0  00000+0 0  9998
2 27718   0.0286 251.1259 0000334 213.8627  75.2401  1.00272444 52759
HELLAS-SAT 2            
1 27811U 03020A   17246.87848517  .00000138  00000-0  00000-0 0  9994
2 27811   0.0502 210.0847 0005826 334.4764 153.8753  1.00273782 10689
AMC-9 (GE-12)           
1 27820U 03024A   17247.16400181 -.00000126  00000-0  00000+0 0  9999
2 27820   0.1371  90.0590 0038331 310.7855 261.8878  1.00205187 52161
THURAYA-2               
1 27825U 03026A   17247.24523465  .00000121  00000-0  00000+0 0  9990
2 27825   4.9872  29.4104 0004871 128.2408 318.1937  1.00274283 52186
OPTUS C1                
1 27831U 03028B   17246.81229862 -.00000161  00000-0  00000+0 0  9990
2 27831   0.0329 170.3481 0004552 350.2144 271.0029  1.00272658 52151
ECHOSTAR 12 (RAINBOW 1) 
1 27852U 03033A   17246.73313031 -.00000210  00000-0  00000+0 0  9997
2 27852   0.0511 295.4114 0002625 234.5028 350.6341  1.00246717 51802
GALAXY 23 (G-23)        
1 27854U 03034A   17247.21480140 -.00000001  00000-0  00000+0 0  9998
2 27854   0.0062 159.8118 0002900   4.1920 135.8575  1.00271389 56372
EUTELSAT 33A            
1 27948U 03043A   17246.89139060  .00000139  00000-0  00000-0 0  9999
2 27948   2.5234  77.9734 0002370 235.3315  21.6827  1.00275413 13305
GALAXY 13 (HORIZONS-1)  
1 27954U 03044A   17247.22164205  .00000034  00000-0  00000+0 0  9997
2 27954   0.0290 110.3025 0001049 267.7885 278.2188  1.00272413 50998
ZHONGXING-20            
1 28082U 03052A   17246.80431176 -.00000338  00000-0  00000-0 0  9995
2 28082   3.6552  70.9285 0002526 135.3210 169.6678  1.00270384 50580
YAMAL 202               
1 28089U 03053A   17246.90036860  .00000106  00000-0  00000-0 0  9997
2 28089   0.0422 102.8025 0003280  57.5780 195.9505  1.00270982 50503
EXPRESS-AM22 (SESAT 2)  
1 28134U 03060A   17246.92717972 -.00000151  00000-0  00000-0 0  9999
2 28134   0.6094  91.3249 0000310 105.0211 200.7882  1.00272000 50106
AMC-10 (GE-10)          
1 28154U 04003A   17246.75254307  .00000074  00000-0  00000-0 0  9991
2 28154   0.0551 291.4710 0002540 196.9360 350.5675  1.00272347 49743
ABS-4 (MOBISAT-1)       
1 28184U 04007A   17246.92799190  .00000027  00000-0  00000+0 0  9998
2 28184   0.0027 183.8713 0001853 339.8268 214.5986  1.00272036 49415
EUTELSAT 7A             
1 28187U 04008A   17246.75893623  .00000034  00000-0  00000-0 0  9998
2 28187   0.0677 345.8650 0005792 182.9242  94.4901  1.00272098 49212
DIRECTV 7S              
1 28238U 04016A   17247.13945510 -.00000013  00000-0  00000+0 0  9997
2 28238   0.0037 288.1633 0003266 239.1604 107.2647  1.00272286 48892
AMC-11 (GE-11)          
1 28252U 04017A   17246.75254307  .00000055  00000-0  00000+0 0  9993
2 28252   0.0556 303.5116 0002701 217.0663 322.4105  1.00273482 48535
INTELSAT 10-02          
1 28358U 04022A   17246.89768316 -.00000024  00000-0  00000-0 0  9999
2 28358   0.0106 165.1252 0000667 314.6943 185.5849  1.00273642 48474
APSTAR 5 (TELSTAR 18)   
1 28364U 04024A   17246.82202069 -.00000308  00000-0  00000+0 0  9993
2 28364   0.0308 103.1239 0002694  62.6750 251.2545  1.00272119 48382
ANIK F2                 
1 28378U 04027A   17246.74282035 -.00000063  00000-0  00000-0 0  9992
2 28378   0.0259 126.1823 0000757  70.0069 303.2011  1.00269868  9122
AMC-15                  
1 28446U 04041A   17246.52945590 -.00000103  00000-0  00000-0 0  9997
2 28446   0.0548 303.6136 0002266 217.2311 267.5625  1.00272301 47211
AMC-16                  
1 28472U 04048A   17246.73313031 -.00000220  00000-0  00000-0 0  9995
2 28472   0.0571 299.4106 0002844 221.1925   1.3746  1.00273250 46572
NSS-10 (AMC-12)         
1 28526U 05003A   17247.15231953 -.00000264  00000-0  00000+0 0  9993
2 28526   0.0552 301.1660 0003067 227.7769 191.9102  1.00273087 46157
XTAR-EUR                
1 28542U 05005A   17245.96864098  .00000137  00000-0  00000-0 0  9991
2 28542   0.0209 144.1303 0002771  11.8780 204.0047  1.00269918 46038
